NORAD_CAT_ID,OBJECT_NAME,OBJECT_TYPE,EPOCH,MEAN_MOTION,ECCENTRICITY,INCLINATION,RA_OF_ASC_NODE,ARG_OF_PERICENTER,MEAN_ANOMALY,BSTAR,MEAN_MOTION_DOT,MEAN_MOTION_DDOT,TLE_LINE0,TLE_LINE1,TLE_LINE2,SEMIMAJOR_AXIS,PERIOD,APOGEE,PERIGEE,DECAYED
51131.0,STARLINK-3388,PAYLOAD,2022-08-05 20:29:43,15.08844191,0.000186,53.2164,68.1969,59.5255,300.592,8.363899999999999e-05,1.043e-05,0.0,0 STARLINK-3388,1 51131U 22005AD  22217.85397240  .00001043  00000-0  83639-4 0  9993,2 51131  53.2164  68.1969 0001860  59.5255 300.5920 15.08844191 30686,6917.868,95.437,541.019,538.446,0.0
51131.0,STARLINK-3388,PAYLOAD,2022-08-06 07:37:24,15.0884881,0.0001978,53.216,66.116,57.5884,302.5299,0.00013784,1.907e-05,0.0,0 STARLINK-3388,1 51131U 22005AD  22218.31764959  .00001907  00000-0  13784-3 0  9992,2 51131  53.2160  66.1160 0001978  57.5884 302.5299 15.08848810 30750,6917.853,95.437,541.087,538.35,0.0
51131.0,STARLINK-3388,PAYLOAD,2022-08-06 20:20:29,15.08853797,0.0002039,53.2172,63.7377,58.5815,301.5377,-0.00025783,-4.391e-05,0.0,0 STARLINK-3388,1 51131U 22005AD  22218.84756481 -.00004391  00000-0 -25783-3 0  9995,2 51131  53.2172  63.7377 0002039  58.5815 301.5377 15.08853797 30835,6917.8380000000025,95.437,541.114,538.293,0.0
51131.0,STARLINK-3388,PAYLOAD,2022-08-06 23:31:16,15.08837804,0.0001881,53.2167,63.1424,60.589,299.5289,0.00012719,1.737e-05,0.0,0 STARLINK-3388,1 51131U 22005AD  22218.98005541  .00001737  00000-0  12719-3 0  9998,2 51131  53.2167  63.1424 0001881  60.5890 299.5289 15.08837804 30857,6917.887,95.438,541.053,538.451,0.0
51131.0,STARLINK-3388,PAYLOAD,2022-08-07 21:46:40,15.0884595,0.0001909999999999,53.2171,58.9796,61.4198,298.6986,0.00013998,1.941e-05,0.0,0 STARLINK-3388,1 51131U 22005AD  22219.90741200  .00001941  00000-0  13998-3 0  9997,2 51131  53.2171  58.9796 0001910  61.4198 298.6986 15.08845950 30990,6917.861999999999,95.437,541.049,538.406,0.0
51131.0,STARLINK-3388,PAYLOAD,2022-08-08 13:40:31,15.08845921,0.0001884,53.2167,56.0057,60.5381,299.5799,0.00014243,1.98e-05,0.0,0 STARLINK-3388,1 51131U 22005AD  22220.56980973  .00001980  00000-0  14243-3 0  9990,2 51131  53.2167  56.0057 0001884  60.5381 299.5799 15.08845921 31090,6917.861999999999,95.437,541.031,538.424,0.0
51131.0,STARLINK-3388,PAYLOAD,2022-08-08 20:02:03,15.08847484,0.0001959,53.2167,54.8162,60.648,299.4708,-5.539e-05,-1.17e-05,0.0,0 STARLINK-3388,1 51131U 22005AD  22220.83476756 -.00001170  00000-0 -55390-4 0  9991,2 51131  53.2167  54.8162 0001959  60.6480 299.4708 15.08847484 31137,6917.858,95.437,541.078,538.367,0.0
51131.0,STARLINK-3388,PAYLOAD,2022-08-09 13:31:18,15.08844816,0.0001902,53.2156,51.5454,61.5232,298.5951,4.736e-05,4.66e-06,0.0,0 STARLINK-3388,1 51131U 22005AD  22221.56340722  .00000466  00000-0  47360-4 0  9998,2 51131  53.2156  51.5454 0001902  61.5232 298.5951 15.08844816 31244,6917.866,95.437,541.0459999999998,538.415,0.0
51131.0,STARLINK-3388,PAYLOAD,2022-08-09 21:28:14,15.08832016,0.0001828,53.2161,50.0581,61.4702,298.6474,-0.00013309,-2.405e-05,0.0,0 STARLINK-3388,1 51131U 22005AD  22221.89461452 -.00002405  00000-0 -13309-3 0  9990,2 51131  53.2161  50.0581 0001828  61.4702 298.6474 15.08832016 31298,6917.905,95.438,541.034,538.505,0.0
51131.0,STARLINK-3388,PAYLOAD,2022-08-10 00:39:01,15.08830556,0.0001806,53.2169,49.4634,61.6418,298.4756,-5.6408e-05,-1.186e-05,0.0,0 STARLINK-3388,1 51131U 22005AD  22222.02710214 -.00001186  00000-0 -56408-4 0  9992,2 51131  53.2169  49.4634 0001806  61.6418 298.4756 15.08830556 32434,6917.909000000002,95.438,541.024,538.525,0.0
51131.0,STARLINK-3388,PAYLOAD,2022-08-10 11:46:43,15.08831891,0.0001943999999999,53.2177,47.3808,57.7664,302.3517,-7.0666e-05,-1.412e-05,0.0,0 STARLINK-3388,1 51131U 22005AD  22222.49078442 -.00001412  00000-0 -70666-4 0  9997,2 51131  53.2177  47.3808 0001944  57.7664 302.3517 15.08831891 31381,6917.905,95.438,541.115,538.425,0.0
51131.0,STARLINK-3388,PAYLOAD,2022-08-10 19:43:39,15.08834993,0.0001648,53.2174,45.8945,55.1319,304.9828,-4.1875e-06,-3.55e-06,0.0,0 STARLINK-3388,1 51131U 22005AD  22222.82198126 -.00000355  00000-0 -41875-5 0  9992,2 51131  53.2174  45.8945 0001648  55.1319 304.9828 15.08834993 31438,6917.896,95.438,540.901,538.621,0.0
51131.0,STARLINK-3388,PAYLOAD,2022-08-11 00:29:48,15.08837379,0.0001646,53.2174,45.0023,54.966,305.1487,1.7671e-05,-7e-08,0.0,0 STARLINK-3388,1 51131U 22005AD  22223.02069980 -.00000007  00000-0  17671-4 0  9999,2 51131  53.2174  45.0023 0001646  54.9660 305.1487 15.08837379 32583,6917.888000000001,95.438,540.8919999999998,538.615,0.0
51131.0,STARLINK-3388,PAYLOAD,2022-08-11 11:37:30,15.08840148,0.0001665999999999,53.2175,42.9207,54.5592,305.5555,2.3208e-05,8.1e-07,0.0,0 STARLINK-3388,1 51131U 22005AD  22223.48437890  .00000081  00000-0  23208-4 0  9992,2 51131  53.2175  42.9207 0001666  54.5592 305.5555 15.08840148 31538,6917.88,95.438,540.8969999999998,538.592,0.0
51131.0,STARLINK-3388,PAYLOAD,2022-08-12 05:06:45,15.08829623,0.0001695,53.2172,39.6497,55.7437,304.3715,0.00011851,1.598e-05,0.0,0 STARLINK-3388,1 51131U 22005AD  22224.21302708  .00001598  00000-0  11851-3 0  9997,2 51131  53.2172  39.6497 0001695  55.7437 304.3715 15.08829623 31644,6917.9119999999975,95.438,540.95,538.605,0.0
51131.0,STARLINK-3388,PAYLOAD,2022-08-12 17:49:50,15.0883956,0.0001537,53.2174,37.2708,54.503,305.6105,0.0001307,1.793e-05,0.0,0 STARLINK-3388,1 51131U 22005AD  22224.74294256  .00001793  00000-0  13070-3 0  9995,2 51131  53.2174  37.2708 0001537  54.5030 305.6105 15.08839560 32847,6917.882,95.438,540.81,538.683,0.0
51131.0,STARLINK-3388,PAYLOAD,2022-08-13 11:19:04,15.08842673,0.000161,53.2162,33.9996,55.3078,304.8066,0.00010691,1.414e-05,0.0,0 STARLINK-3388,1 51131U 22005AD  22225.47158133  .00001414  00000-0  10691-3 0  9995,2 51131  53.2162  33.9996 0001610  55.3078 304.8066 15.08842673 31833,6917.871999999999,95.437,540.851,538.623,0.0
51131.0,STARLINK-3388,PAYLOAD,2022-08-13 20:51:23,15.08840809,0.0001569,53.2166,32.2146,57.42,302.6943,2.786e-05,1.55e-06,0.0,0 STARLINK-3388,1 51131U 22005AD  22225.86902243  .00000155  00000-0  27860-4 0  9995,2 51131  53.2166  32.2146 0001569  57.4200 302.6943 15.08840809 33010,6917.878000000002,95.438,540.828,538.658,0.0
51131.0,STARLINK-3388,PAYLOAD,2022-08-14 12:45:15,15.088390400000002,0.000162,53.2168,29.2411,56.5215,303.5932,0.00010763,1.425e-05,0.0,0 STARLINK-3388,1 51131U 22005AD  22226.53142421  .00001425  00000-0  10763-3 0  9998,2 51131  53.2168  29.2411 0001620  56.5215 303.5932 15.08839040 31995,6917.8830000000025,95.438,540.869,538.628,0.0
51131.0,STARLINK-3388,PAYLOAD,2022-08-14 17:31:24,15.08833883,0.0001561999999999,53.2179,28.3496,58.7725,301.342,-4.468e-06,-3.59e-06,0.0,0 STARLINK-3388,1 51131U 22005AD  22226.73014904 -.00000359  00000-0 -44680-5 0  9998,2 51131  53.2179  28.3496 0001562  58.7725 301.3420 15.08833883 33141,6917.899,95.438,540.845,538.684,0.0
51131.0,STARLINK-3388,PAYLOAD,2022-08-14 20:42:11,15.08834862,0.0001559,53.2178,27.7547,58.9198,301.1947,-5.247200000000001e-07,-2.96e-06,0.0,0 STARLINK-3388,1 51131U 22005AD  22226.86262838 -.00000296  00000-0 -52472-6 0  9992,2 51131  53.2178  27.7547 0001559  58.9198 301.1947 15.08834862 32040,6917.896,95.438,540.84,538.683,0.0
51131.0,STARLINK-3388,PAYLOAD,2022-08-15 11:00:38,15.08839076,0.000151,53.2176,25.07800000000001,55.8115,304.302,8.1719e-05,1.013e-05,0.0,0 STARLINK-3388,1 51131U 22005AD  22227.45878398  .00001013  00000-0  81719-4 0  9992,2 51131  53.2176  25.0780 0001510  55.8115 304.3020 15.08839076 32139,6917.8830000000025,95.438,540.793,538.7040000000002,0.0
51131.0,STARLINK-3388,PAYLOAD,2022-08-15 12:36:02,15.088395000000002,0.0001509,53.2176,24.7806,55.9334,304.1801,8.340299999999999e-05,1.04e-05,0.0,0 STARLINK-3388,1 51131U 22005AD  22227.52502371  .00001040  00000-0  83403-4 0  9997,2 51131  53.2176  24.7806 0001509  55.9334 304.1801 15.08839500 33268,6917.882,95.438,540.7909999999998,538.703,0.0
51131.0,STARLINK-3388,PAYLOAD,2022-08-15 20:32:57,15.08841449,0.0001564,53.2174,23.294,54.3561,305.7576,0.00010246,1.343e-05,0.0,0 STARLINK-3388,1 51131U 22005AD  22227.85622242  .00001343  00000-0  10246-3 0  9993,2 51131  53.2174  23.2940 0001564  54.3561 305.7576 15.08841449 32197,6917.876,95.437,540.823,538.659,0.0
51131.0,STARLINK-3388,PAYLOAD,2022-08-16 02:54:30,15.08833798,0.0001565999999999,53.2169,22.1042,52.2751,307.8383,2.0602e-05,4e-07,0.0,0 STARLINK-3388,1 51131U 22005AD  22228.12119024  .00000040  00000-0  20602-4 0  9994,2 51131  53.2169  22.1042 0001566  52.2751 307.8383 15.08833798 33358,6917.899,95.438,540.8480000000002,538.681,0.0
51131.0,STARLINK-3388,PAYLOAD,2022-08-16 10:51:26,15.08833342,0.000155,53.2168,20.6173,52.0856,308.0277,9.4247e-05,1.212e-05,0.0,0 STARLINK-3388,1 51131U 22005AD  22228.45238945  .00001212  00000-0  94247-4 0  9992,2 51131  53.2168  20.6173 0001550  52.0856 308.0277 15.08833342 32283,6917.901,95.438,540.8380000000002,538.693,0.0
51131.0,STARLINK-3388,PAYLOAD,2022-08-16 17:12:58,15.08837586,0.0001554,53.2171,19.4284,51.1795,308.9335,0.00012611,1.719e-05,0.0,0 STARLINK-3388,1 51131U 22005AD  22228.71734714  .00001719  00000-0  12611-3 0  9992,2 51131  53.2171  19.4284 0001554  51.1795 308.9335 15.08837586 33449,6917.888000000001,95.438,540.828,538.678,0.0
51131.0,STARLINK-3388,PAYLOAD,2022-08-18 02:36:04,15.08840872,0.0001588,53.2172,13.1842,50.0805,310.0326,0.00015354,2.156e-05,0.0,0 STARLINK-3388,1 51131U 22005AD  22230.10838625  .00002156  00000-0  15354-3 0  9997,2 51131  53.2172  13.1842 0001588  50.0805 310.0326 15.08840872 33657,6917.878000000002,95.437,540.841,538.644,0.0
51131.0,STARLINK-3388,PAYLOAD,2022-08-18 10:33:00,15.08835636,0.0001726,53.2199,11.6979,53.5531,306.562,9.2594e-05,1.186e-05,0.0,0 STARLINK-3388,1 51131U 22005AD  22230.43959251  .00001186  00000-0  92594-4 0  9996,2 51131  53.2199  11.6979 0001726  53.5531 306.5620 15.08835636 33703,6917.894,95.438,540.953,538.565,0.0
